ORBCOMM FM115           
1 41186U 15081H   25290.94222501  .00001200  00000+0  26727-3 0  9997
2 41186  46.9976 175.6379 0001316 273.4512  86.6225 14.62752933525740
ORBCOMM FM108           
1 41187U 15081J   25290.26481302  .00001387  00000+0  33281-3 0  9998
2 41187  47.0048 250.3633 0001810 174.1976 185.8931 14.58401801524618
ORBCOMM FM117           
1 41188U 15081K   25290.91619567  .00001453  00000+0  34683-3 0  9998
2 41188  47.0007 246.0079 0002534 185.9878 174.0978 14.58406305524755
ORBCOMM FM116           
1 41189U 15081L   25290.83057298  .00001474  00000+0  35068-3 0  9998
2 41189  47.0033 336.2077 0001913 332.2818  27.7966 14.58485064523553
